H1 CPF 01  gfz 2022 05 06 12  6262 terrasarx 
H2 0702601  6201 31698    2022 05 06 12 59 42 2022 05 11 00 00 42   120 1 1  0 0 0
H9
10 0 59706  76302.000000  0   -4275679.430   3968051.772   3655253.109
10 0 59706  76422.000000  0   -4456177.768   4400289.239   2861145.750
10 0 59706  76542.000000  0   -4551839.324   4757995.373   2016647.646
10 0 59706  76662.000000  0   -4562361.467   5033425.696   1136630.325
10 0 59706  76782.000000  0   -4489066.649   5220298.198    236595.394
10 0 59706  76902.000000  0   -4334854.236   5313934.798   -667605.659
10 0 59706  77022.000000  0   -4104119.458   5311372.213  -1560061.201
10 0 59706  77142.000000  0   -3802639.924   5211434.324  -2425089.314
10 0 59706  77262.000000  0   -3437436.400   5014770.600  -3247519.792
10 0 59706  77382.000000  0   -3016609.984   4723855.673  -4012964.894
10 0 59706  77502.000000  0   -2549161.073   4342952.336  -4708070.209
10 0 59706  77622.000000  0   -2044795.213   3878040.985  -5320742.231
10 0 59706  77742.000000  0   -1513721.323   3336718.687  -5840351.010
10 0 59706  77862.000000  0    -966445.172   2728067.652  -6257905.963
10 0 59706  77982.000000  0    -413562.558   2062496.598  -6566200.288
10 0 59706  78102.000000  0     134442.720   1351560.388  -6759923.486
10 0 59706  78222.000000  0     667392.604    607760.205  -6835743.619
10 0 59706  78342.000000  0    1175599.672   -155672.512  -6792359.230
10 0 59706  78462.000000  0    1650039.261   -925007.209  -6630518.282
10 0 59706  78582.000000  0    2082505.308  -1686254.727  -6353005.606
10 0 59706  78702.000000  0    2465750.062  -2425415.025  -5964600.469
10 0 59706  78822.000000  0    2793605.029  -3128729.448  -5472004.221
10 0 59706  78942.000000  0    3061082.700  -3782936.841  -4883736.391
10 0 59706  79062.000000  0    3264454.646  -4375524.935  -4209996.067
10 0 59706  79182.000000  0    3401304.655  -4894971.524  -3462495.449
10 0 59706  79302.000000  0    3470558.317  -5330974.847  -2654266.397
10 0 59706  79422.000000  0    3472485.752  -5674667.069  -1799438.001
10 0 59706  79542.000000  0    3408677.039  -5918802.311   -912990.488
10 0 59706  79662.000000  0    3281990.727  -6057916.835    -10489.660
10 0 59706  79782.000000  0    3096474.604  -6088454.230    892192.990
10 0 59706  79902.000000  0    2857262.678  -6008854.165   1779166.681
10 0 59706  80022.000000  0    2570449.978  -5819600.435   2634811.671
10 0 59706  80142.000000  0    2242947.027  -5523226.032   3444062.517
10 0 59706  80262.000000  0    1882319.835  -5124277.912   4192678.592
10 0 59706  80382.000000  0    1496619.169  -4629242.452   4867498.634
10 0 59706  80502.000000  0    1094204.007  -4046432.579   5456673.140
10 0 59706  80622.000000  0     683561.615  -3385839.504   5949872.255
10 0 59706  80742.000000  0     273129.004  -2658951.779   6338461.510
10 0 59706  80862.000000  0    -128878.911  -1878549.349   6615645.824
10 0 59706  80982.000000  0    -514631.714  -1058475.722   6776581.874
10 0 59706  81102.000000  0    -876834.590   -213390.921   6818458.856
10 0 59706  81222.000000  0   -1208865.229    641491.536   6740544.741
10 0 59706  81342.000000  0   -1504894.446   1490678.141   6544197.900
10 0 59706  81462.000000  0   -1759988.392   2318675.233   6232844.909
10 0 59706  81582.000000  0   -1970191.449   3110271.531   5811924.592
10 0 59706  81702.000000  0   -2132587.859   3850818.799   5288798.196
10 0 59706  81822.000000  0   -2245341.786   4526506.404   4672627.852
10 0 59706  81942.000000  0   -2307715.048   5124625.503   3974221.822
10 0 59706  82062.000000  0   -2320061.465   5633816.374   3205848.635
10 0 59706  82182.000000  0   -2283797.907   6044292.711   2381022.033
10 0 59706  82302.000000  0   -2201352.533   6348037.984   1514261.753
10 0 59706  82422.000000  0   -2076090.917   6538969.422    620833.383
10 0 59706  82542.000000  0   -1912222.012   6613064.765   -283527.148
10 0 59706  82662.000000  0   -1714686.686   6568448.879  -1182899.164
10 0 59706  82782.000000  0   -1489030.690   6405437.128  -2061469.086
10 0 59706  82902.000000  0   -1241264.984   6126529.458  -2903817.821
10 0 59706  83022.000000  0    -977719.276   5736362.017  -3695194.298
10 0 59706  83142.000000  0    -704892.144   5241619.723  -4421774.473
10 0 59706  83262.000000  0    -429301.203   4650909.386  -5070900.490
10 0 59706  83382.000000  0    -157336.338   3974599.025  -5631295.183
10 0 59706  83502.000000  0     104880.845   3224626.084  -6093250.257
10 0 59706  83622.000000  0     351627.780   2414278.501  -6448783.852
10 0 59706  83742.000000  0     577698.998   1557955.674  -6691766.296
10 0 59706  83862.000000  0     778510.692    670913.435  -6818016.013
10 0 59706  83982.000000  0     950189.440   -231004.460  -6825363.687
10 0 59706  84102.000000  0    1089644.006  -1131644.176  -6713685.046
10 0 59706  84222.000000  0    1194619.203  -2014823.736  -6484900.939
10 0 59706  84342.000000  0    1263731.790  -2864615.329  -6142948.273
10 0 59706  84462.000000  0    1296488.282  -3665627.685  -5693721.692
10 0 59706  84582.000000  0    1293282.436  -4403284.697  -5144981.858
10 0 59706  84702.000000  0    1255374.491  -5064091.619  -4506231.405
10 0 59706  84822.000000  0    1184851.450  -5635887.184  -3788562.285
10 0 59706  84942.000000  0    1084568.082  -6108076.704  -3004472.156
10 0 59706  85062.000000  0     958070.835  -6471839.287  -2167653.186
10 0 59706  85182.000000  0     809505.973  -6720305.309  -1292755.882
10 0 59706  85302.000000  0     643512.947  -6848698.161   -395131.029
10 0 59706  85422.000000  0     465105.970  -6854435.303    509444.409
10 0 59706  85542.000000  0     279546.887  -6737186.871   1405051.193
10 0 59706  85662.000000  0      92212.405  -6498889.817   2275916.793
10 0 59706  85782.000000  0     -91540.902  -6143715.583   3106703.340
10 0 59706  85902.000000  0    -266510.354  -5677990.485   3882786.320
10 0 59706  86022.000000  0    -427776.522  -5110074.141   4590515.479
10 0 59706  86142.000000  0    -570824.372  -4450200.386   5217457.175
10 0 59706  86262.000000  0    -691653.189  -3710282.994   5752612.040
10 0 59706  86382.000000  0    -786873.408  -2903690.681   6186605.784
10 0 59707    102.000000  0    -853787.922  -2044996.480   6511846.739
10 0 59707    222.000000  0    -890456.436  -1149710.695   6722650.993
10 0 59707    342.000000  0    -895742.422   -233999.097   6815337.137
10 0 59707    462.000000  0    -869341.964    685609.947   6788287.003
10 0 59707    582.000000  0    -811792.454   1592523.484   6641972.228
10 0 59707    702.000000  0    -724461.502   2470382.805   6378946.419
10 0 59707    822.000000  0    -609516.868   3303358.236   6003803.447
10 0 59707    942.000000  0    -469878.050   4076436.212   5523102.183
10 0 59707   1062.000000  0    -309149.875   4775693.168   4945257.270
10 0 59707   1182.000000  0    -131539.288   5388553.033   4280398.743
10 0 59707   1302.000000  0      58243.553   5904021.771   3540197.206
10 0 59707   1422.000000  0     255096.452   6312892.067   2737664.410
10 0 59707   1542.000000  0     453647.683   6607923.783   1886924.565
10 0 59707   1662.000000  0     648387.905   6783979.679   1002958.689
10 0 59707   1782.000000  0     833806.042   6838120.248    101334.798
10 0 59707   1902.000000  0    1004527.117   6769655.336   -802074.367
10 0 59707   2022.000000  0    1155446.948   6580149.887  -1691379.565
10 0 59707   2142.000000  0    1281860.621   6273385.194  -2550961.943
10 0 59707   2262.000000  0    1379582.168   5855276.542  -3365753.524
10 0 59707   2382.000000  0    1445052.620   5333749.014  -4121504.951
10 0 59707   2502.000000  0    1475433.855   4718575.243  -4805034.804
10 0 59707   2622.000000  0    1468685.881   4021179.790  -5404455.028
10 0 59707   2742.000000  0    1423625.923   3254417.267  -5909369.708
10 0 59707   2862.000000  0    1339968.610   2432327.686  -6311045.964
10 0 59707   2982.000000  0    1218346.224   1569874.991  -6602552.701
10 0 59707   3102.000000  0    1060309.914    682675.705  -6778869.383
10 0 59707   3222.000000  0     868311.253   -213280.807  -6836964.131
10 0 59707   3342.000000  0     645664.510  -1101915.443  -6775839.463
10 0 59707   3462.000000  0     396490.231  -1967340.669  -6596545.889
10 0 59707   3582.000000  0     125641.808  -2794135.975  -6302166.197
10 0 59707   3702.000000  0    -161385.803  -3567618.306  -5897770.306
10 0 59707   3822.000000  0    -458562.977  -4274101.026  -5390335.953
10 0 59707   3942.000000  0    -759445.867  -4901137.013  -4788639.580
10 0 59707   4062.000000  0   -1057309.898  -5437743.525  -4103116.198
10 0 59707   4182.000000  0   -1345293.653  -5874603.400  -3345688.450
10 0 59707   4302.000000  0   -1616549.828  -6204237.620  -2529566.917
10 0 59707   4422.000000  0   -1864400.269  -6421145.688  -1669024.623
10 0 59707   4542.000000  0   -2082491.395  -6521909.946   -779147.868
10 0 59707   4662.000000  0   -2264945.973  -6505259.479    124431.975
10 0 59707   4782.000000  0   -2406507.629  -6372090.884   1025819.759
10 0 59707   4902.000000  0   -2502673.936  -6125445.219   1909144.624
10 0 59707   5022.000000  0   -2549814.516  -5770441.428   2758848.690
10 0 59707   5142.000000  0   -2545270.715  -5314167.719   3559969.466
10 0 59707   5262.000000  0   -2487434.304  -4765534.190   4298409.361
10 0 59707   5382.000000  0   -2375803.957  -4135091.438   4961186.876
10 0 59707   5502.000000  0   -2211018.852  -3434819.551   5536665.936
10 0 59707   5622.000000  0   -1994867.261  -2677891.057   6014758.068
10 0 59707   5742.000000  0   -1730270.336  -1878416.611   6387093.978
10 0 59707   5862.000000  0   -1421242.420  -1051177.973   6647164.822
10 0 59707   5982.000000  0   -1072829.170   -211350.842   6790429.803
10 0 59707   6102.000000  0    -691025.235    625773.801   6814388.904
10 0 59707   6222.000000  0    -282671.280   1445066.989   6718624.652
10 0 59707   6342.000000  0     144668.605   2231834.949   6504809.203
99
